IRIDIUM 112             
1 41925U 17003J   24276.30998012 -.00004331  00000+0 -15550-2 0  9995
2 41925  86.4014 348.6095 0001826  86.4991 273.6413 14.34202843403997
IRIDIUM 111             
1 41926U 17003K   24276.29729241  .00000386  00000+0  13060-3 0  9999
2 41926  86.4018 348.6721 0001920  95.9560 264.1855 14.34218317403976
IRIDIUM 113             
1 42803U 17039A   24276.34700010  .00001498  00000+0  52780-3 0  9999
2 42803  86.4023 222.3889 0002738  83.2686 276.8821 14.34210076381913
IRIDIUM 120             
1 42805U 17039C   24276.41044736  .00001380  00000+0  48564-3 0  9990
2 42805  86.3986 222.2262 0002343  84.0994 276.0468 14.34224811381910
IRIDIUM 115             
1 42806U 17039D   24276.38898008  .00002248  00000+0  66204-3 0  9991
2 42806  86.4524 222.2754 0001888  82.4238 277.7177 14.43289001384439
IRIDIUM 118             
1 42807U 17039E   24276.42021980 -.00000070  00000+0 -32241-4 0  9992
2 42807  86.3925 253.8416 0002253  86.7575 273.3879 14.34216667380689
IRIDIUM 117             
1 42808U 17039F   24276.43924471 -.00000163  00000+0 -65418-4 0  9996
2 42808  86.3926 253.7972 0001859  89.5635 270.5774 14.34217796380717
